{
    "links": {
        "self": "http://www.neowsapp.com/rest/v1/neo/3311868?api_key=iIulBulltgU6a56xZRHN4H3l9WmuAYTsLGpBGhQ2"
    },
    "id": "3311868",
    "neo_reference_id": "3311868",
    "name": "(2006 AU3)",
    "designation": "2006 AU3",
    "nasa_jpl_url": "http://ssd.jpl.nasa.gov/sbdb.cgi?sstr=3311868",
    "absolute_magnitude_h": 26.3,
    "estimated_diameter": {
        "kilometers": {
            "estimated_diameter_min": 0.0146067964,
            "estimated_diameter_max": 0.0326617897
        },
        "meters": {
            "estimated_diameter_min": 14.6067964271,
            "estimated_diameter_max": 32.6617897446
        },
        "miles": {
            "estimated_diameter_min": 0.0090762397,
            "estimated_diameter_max": 0.020295089
        },
        "feet": {
            "estimated_diameter_min": 47.92256199,
            "estimated_diameter_max": 107.1581062656
        }
    },
    "is_potentially_hazardous_asteroid": false,
    "close_approach_data": [
        {
            "close_approach_date": "2005-10-18",
            "close_approach_date_full": "2005-Oct-18 20:33",
            "epoch_date_close_approach": 1129667580000,
            "relative_velocity": {
                "kilometers_per_second": "14.7862904337",
                "kilometers_per_hour": "53230.6455613423",
                "miles_per_hour": "33075.4530711574"
            },
            "miss_distance": {
                "astronomical": "0.0352014197",
                "lunar": "13.6933522633",
                "kilometers": "5266057.408096039",
                "miles": "3272176.3405577782"
            },
            "orbiting_body": "Mars"
        },
        {
            "close_approach_date": "2006-01-06",
            "close_approach_date_full": "2006-Jan-06 07:08",
            "epoch_date_close_approach": 1136531280000,
            "relative_velocity": {
                "kilometers_per_second": "7.348053858",
                "kilometers_per_hour": "26452.9938889509",
                "miles_per_hour": "16436.861675054"
            },
            "miss_distance": {
                "astronomical": "0.0143233922",
                "lunar": "5.5717995658",
                "kilometers": "2142748.964294614",
                "miles": "1331442.4666051132"
            },
            "orbiting_body": "Earth"
        },
        {
            "close_approach_date": "2101-09-19",
            "close_approach_date_full": "2101-Sep-19 14:53",
            "epoch_date_close_approach": 4156584780000,
            "relative_velocity": {
                "kilometers_per_second": "15.595088605",
                "kilometers_per_hour": "56142.3189780238",
                "miles_per_hour": "34884.6537005393"
            },
            "miss_distance": {
                "astronomical": "0.0246878155",
                "lunar": "9.6035602295",
                "kilometers": "3693244.613752985",
                "miles": "2294875.788181793"
            },
            "orbiting_body": "Mars"
        }
    ],
    "orbital_data": {
        "orbit_id": "7",
        "orbit_determination_date": "2017-04-06 09:09:27",
        "first_observation_date": "2006-01-07",
        "last_observation_date": "2006-01-10",
        "data_arc_in_days": 3,
        "observations_used": 30,
        "orbit_uncertainty": "7",
        "minimum_orbit_intersection": ".00205009",
        "jupiter_tisserand_invariant": "3.383",
        "epoch_osculation": "2459000.5",
        "eccentricity": ".5653614269945312",
        "semi_major_axis": "2.267633957689779",
        "inclination": "1.41702976074362",
        "ascending_node_longitude": "114.6919247923466",
        "orbital_period": "1247.262470173267",
        "perihelion_distance": ".9856011874690295",
        "perihelion_argument": ".01546704352453928",
        "aphelion_distance": "3.549666727910529",
        "perihelion_time": "2458736.740929410765",
        "mean_anomaly": "76.12933739514665",
        "mean_motion": ".2886321112107137",
        "equinox": "J2000",
        "orbit_class": {
            "orbit_class_type": "APO",
            "orbit_class_description": "Near-Earth asteroid orbits which cross the Earth’s orbit similar to that of 1862 Apollo",
            "orbit_class_range": "a (semi-major axis) > 1.0 AU; q (perihelion) < 1.017 AU"
        }
    },
    "is_sentry_object": false
}